1 26690U 01004A   15152.39110363  .00000083  00000-0  00000+0 0  9998
2 26690  53.0050 189.0310 0164550 248.0341 224.6775  2.00570836105036
